CCSDS_OMM_VERS = 2.0
CREATION_DATE  = 
ORIGINATOR     = 

OBJECT_NAME    = SDA_1673
OBJECT_ID      = 2025-230K
CENTER_NAME    = EARTH
REF_FRAME      = TEME
TIME_SYSTEM    = UTC
MEAN_ELEMENT_THEORY = SGP/SGP4

EPOCH          = 2025-11-13T05:47:20.868000
MEAN_MOTION    = 13.85558169
ECCENTRICITY   = .00050948
INCLINATION    = 81.3034
RA_OF_ASC_NODE = 51.9410
ARG_OF_PERICENTER = 93.6118
MEAN_ANOMALY   = 266.5623

EPHEMERIS_TYPE = 0
CLASSIFICATION_TYPE = U
NORAD_CAT_ID   = 65983
ELEMENT_SET_NO = 999
REV_AT_EPOCH   = 392
BSTAR          = .27556434E-3
MEAN_MOTION_DOT = .326E-5
MEAN_MOTION_DDOT = 0

CCSDS_OMM_VERS = 2.0
CREATION_DATE  = 
ORIGINATOR     = 

OBJECT_NAME    = SDA_1674
OBJECT_ID      = 2025-230L
CENTER_NAME    = EARTH
REF_FRAME      = TEME
TIME_SYSTEM    = UTC
MEAN_ELEMENT_THEORY = SGP/SGP4

EPOCH          = 2025-11-13T05:51:58.833216
MEAN_MOTION    = 13.85399668
ECCENTRICITY   = .00048948
INCLINATION    = 81.3025
RA_OF_ASC_NODE = 51.9394
ARG_OF_PERICENTER = 85.2818
MEAN_ANOMALY   = 274.8899

EPHEMERIS_TYPE = 0
CLASSIFICATION_TYPE = U
NORAD_CAT_ID   = 65984
ELEMENT_SET_NO = 999
REV_AT_EPOCH   = 392
BSTAR          = .26316673E-3
MEAN_MOTION_DOT = .311E-5
MEAN_MOTION_DDOT = 0

CCSDS_OMM_VERS = 2.0
CREATION_DATE  = 
ORIGINATOR     = 

OBJECT_NAME    = SDA_1675
OBJECT_ID      = 2025-230M
CENTER_NAME    = EARTH
REF_FRAME      = TEME
TIME_SYSTEM    = UTC
MEAN_ELEMENT_THEORY = SGP/SGP4

EPOCH          = 2025-11-13T06:11:39.979104
MEAN_MOTION    = 13.84727172
ECCENTRICITY   = .00031899
INCLINATION    = 81.3002
RA_OF_ASC_NODE = 51.9517
ARG_OF_PERICENTER = 46.5542
MEAN_ANOMALY   = 313.5880

EPHEMERIS_TYPE = 0
CLASSIFICATION_TYPE = U
NORAD_CAT_ID   = 65985
ELEMENT_SET_NO = 999
REV_AT_EPOCH   = 392
BSTAR          = .31800449E-3
MEAN_MOTION_DOT = .37E-5
MEAN_MOTION_DDOT = 0

CCSDS_OMM_VERS = 2.0
CREATION_DATE  = 
ORIGINATOR     = 

OBJECT_NAME    = SDA_1676
OBJECT_ID      = 2025-230N
CENTER_NAME    = EARTH
REF_FRAME      = TEME
TIME_SYSTEM    = UTC
MEAN_ELEMENT_THEORY = SGP/SGP4

EPOCH          = 2025-11-13T06:16:04.764864
MEAN_MOTION    = 13.84577389
ECCENTRICITY   = .0002426
INCLINATION    = 81.3033
RA_OF_ASC_NODE = 51.9643
ARG_OF_PERICENTER = 37.9263
MEAN_ANOMALY   = 322.2065

EPHEMERIS_TYPE = 0
CLASSIFICATION_TYPE = U
NORAD_CAT_ID   = 65986
ELEMENT_SET_NO = 999
REV_AT_EPOCH   = 392
BSTAR          = .3538571E-3
MEAN_MOTION_DOT = .409E-5
MEAN_MOTION_DDOT = 0

CCSDS_OMM_VERS = 2.0
CREATION_DATE  = 
ORIGINATOR     = 

OBJECT_NAME    = SDA_1677
OBJECT_ID      = 2025-230P
CENTER_NAME    = EARTH
REF_FRAME      = TEME
TIME_SYSTEM    = UTC
MEAN_ELEMENT_THEORY = SGP/SGP4

EPOCH          = 2025-11-13T06:13:33.557952
MEAN_MOTION    = 13.84663170
ECCENTRICITY   = .00027818
INCLINATION    = 81.3006
RA_OF_ASC_NODE = 51.9551
ARG_OF_PERICENTER = 42.7116
MEAN_ANOMALY   = 317.4256

EPHEMERIS_TYPE = 0
CLASSIFICATION_TYPE = U
NORAD_CAT_ID   = 65987
ELEMENT_SET_NO = 999
REV_AT_EPOCH   = 392
BSTAR          = .37571907E-3
MEAN_MOTION_DOT = .434E-5
MEAN_MOTION_DDOT = 0

CCSDS_OMM_VERS = 2.0
CREATION_DATE  = 
ORIGINATOR     = 

OBJECT_NAME    = SDA_1678
OBJECT_ID      = 2025-230Q
CENTER_NAME    = EARTH
REF_FRAME      = TEME
TIME_SYSTEM    = UTC
MEAN_ELEMENT_THEORY = SGP/SGP4

EPOCH          = 2025-11-13T05:48:38.543328
MEAN_MOTION    = 13.85513351
ECCENTRICITY   = .00049909
INCLINATION    = 81.3037
RA_OF_ASC_NODE = 51.9440
ARG_OF_PERICENTER = 91.5930
MEAN_ANOMALY   = 268.5799

EPHEMERIS_TYPE = 0
CLASSIFICATION_TYPE = U
NORAD_CAT_ID   = 65988
ELEMENT_SET_NO = 999
REV_AT_EPOCH   = 392
BSTAR          = .27906638E-3
MEAN_MOTION_DOT = .33E-5
MEAN_MOTION_DDOT = 0

CCSDS_OMM_VERS = 2.0
CREATION_DATE  = 
ORIGINATOR     = 

OBJECT_NAME    = SDA_1679
OBJECT_ID      = 2025-230R
CENTER_NAME    = EARTH
REF_FRAME      = TEME
TIME_SYSTEM    = UTC
MEAN_ELEMENT_THEORY = SGP/SGP4

EPOCH          = 2025-11-13T05:54:32.780736
MEAN_MOTION    = 13.85311122
ECCENTRICITY   = .00051015
INCLINATION    = 81.3036
RA_OF_ASC_NODE = 51.9497
ARG_OF_PERICENTER = 80.2144
MEAN_ANOMALY   = 279.9589

EPHEMERIS_TYPE = 0
CLASSIFICATION_TYPE = U
NORAD_CAT_ID   = 65989
ELEMENT_SET_NO = 999
REV_AT_EPOCH   = 392
BSTAR          = .37304478E-3
MEAN_MOTION_DOT = .436E-5
MEAN_MOTION_DDOT = 0

CCSDS_OMM_VERS = 2.0
CREATION_DATE  = 
ORIGINATOR     = 

OBJECT_NAME    = SDA_1680
OBJECT_ID      = 2025-230S
CENTER_NAME    = EARTH
REF_FRAME      = TEME
TIME_SYSTEM    = UTC
MEAN_ELEMENT_THEORY = SGP/SGP4

EPOCH          = 2025-11-13T05:58:06.491136
MEAN_MOTION    = 13.85190169
ECCENTRICITY   = .00048745
INCLINATION    = 81.3027
RA_OF_ASC_NODE = 51.9467
ARG_OF_PERICENTER = 73.3130
MEAN_ANOMALY   = 286.8562

EPHEMERIS_TYPE = 0
CLASSIFICATION_TYPE = U
NORAD_CAT_ID   = 65990
ELEMENT_SET_NO = 999
REV_AT_EPOCH   = 392
BSTAR          = .35450277E-3
MEAN_MOTION_DOT = .414E-5
MEAN_MOTION_DDOT = 0

CCSDS_OMM_VERS = 2.0
CREATION_DATE  = 
ORIGINATOR     = 

OBJECT_NAME    = SDA_1681
OBJECT_ID      = 2025-230T
CENTER_NAME    = EARTH
REF_FRAME      = TEME
TIME_SYSTEM    = UTC
MEAN_ELEMENT_THEORY = SGP/SGP4

EPOCH          = 2025-11-13T05:55:45.769728
MEAN_MOTION    = 13.85270328
ECCENTRICITY   = .00049876
INCLINATION    = 81.3025
RA_OF_ASC_NODE = 51.9427
ARG_OF_PERICENTER = 77.7780
MEAN_ANOMALY   = 282.3935

EPHEMERIS_TYPE = 0
CLASSIFICATION_TYPE = U
NORAD_CAT_ID   = 65991
ELEMENT_SET_NO = 999
REV_AT_EPOCH   = 392
BSTAR          = .41197344E-3
MEAN_MOTION_DOT = .48E-5
MEAN_MOTION_DDOT = 0

CCSDS_OMM_VERS = 2.0
CREATION_DATE  = 
ORIGINATOR     = 

OBJECT_NAME    = SDA_1682
OBJECT_ID      = 2025-230U
CENTER_NAME    = EARTH
REF_FRAME      = TEME
TIME_SYSTEM    = UTC
MEAN_ELEMENT_THEORY = SGP/SGP4

EPOCH          = 2025-11-13T06:08:31.592544
MEAN_MOTION    = 13.84834517
ECCENTRICITY   = .00034312
INCLINATION    = 81.3053
RA_OF_ASC_NODE = 51.9639
ARG_OF_PERICENTER = 52.5431
MEAN_ANOMALY   = 307.6038

EPHEMERIS_TYPE = 0
CLASSIFICATION_TYPE = U
NORAD_CAT_ID   = 65992
ELEMENT_SET_NO = 999
REV_AT_EPOCH   = 392
BSTAR          = .36300903E-3
MEAN_MOTION_DOT = .421E-5
MEAN_MOTION_DDOT = 0

CCSDS_OMM_VERS = 2.0
CREATION_DATE  = 
ORIGINATOR     = 

OBJECT_NAME    = SDA_1683
OBJECT_ID      = 2025-230V
CENTER_NAME    = EARTH
REF_FRAME      = TEME
TIME_SYSTEM    = UTC
MEAN_ELEMENT_THEORY = SGP/SGP4

EPOCH          = 2025-11-13T06:06:09.782496
MEAN_MOTION    = 13.84915528
ECCENTRICITY   = .00037791
INCLINATION    = 81.3043
RA_OF_ASC_NODE = 51.9587
ARG_OF_PERICENTER = 55.0185
MEAN_ANOMALY   = 305.1326

EPHEMERIS_TYPE = 0
CLASSIFICATION_TYPE = U
NORAD_CAT_ID   = 65993
ELEMENT_SET_NO = 999
REV_AT_EPOCH   = 392
BSTAR          = .38492909E-3
MEAN_MOTION_DOT = .446E-5
MEAN_MOTION_DDOT = 0

CCSDS_OMM_VERS = 2.0
CREATION_DATE  = 
ORIGINATOR     = 

OBJECT_NAME    = SDA_1684
OBJECT_ID      = 2025-230W
CENTER_NAME    = EARTH
REF_FRAME      = TEME
TIME_SYSTEM    = UTC
MEAN_ELEMENT_THEORY = SGP/SGP4

EPOCH          = 2025-11-13T06:10:24.680640
MEAN_MOTION    = 13.84770216
ECCENTRICITY   = .00035233
INCLINATION    = 81.3027
RA_OF_ASC_NODE = 51.9578
ARG_OF_PERICENTER = 42.1356
MEAN_ANOMALY   = 318.0071

EPHEMERIS_TYPE = 0
CLASSIFICATION_TYPE = U
NORAD_CAT_ID   = 65994
ELEMENT_SET_NO = 999
REV_AT_EPOCH   = 392
BSTAR          = .33094408E-3
MEAN_MOTION_DOT = .384E-5
MEAN_MOTION_DDOT = 0

