SDA_1673                
1 65983U 25230K   25317.24121375  .00000326  00000+0  27556-3 0  9994
2 65983  81.3034  51.9410 0005094  93.6118 266.5623 13.85558169  3923
SDA_1674                
1 65984U 25230L   25317.24443094  .00000311  00000+0  26317-3 0  9998
2 65984  81.3025  51.9394 0004894  85.2818 274.8899 13.85399668  3920
SDA_1675                
1 65985U 25230M   25317.25810161  .00000370  00000+0  31800-3 0  9991
2 65985  81.3002  51.9517 0003189  46.5542 313.5880 13.84727172  3928
SDA_1676                
1 65986U 25230N   25317.26116626  .00000409  00000+0  35386-3 0  9994
2 65986  81.3033  51.9643 0002426  37.9263 322.2065 13.84577389  3925
SDA_1677                
1 65987U 25230P   25317.25941618  .00000434  00000+0  37572-3 0  9998
2 65987  81.3006  51.9551 0002781  42.7116 317.4256 13.84663170  3921
SDA_1678                
1 65988U 25230Q   25317.24211277  .00000330  00000+0  27907-3 0  9995
2 65988  81.3037  51.9440 0004990  91.5930 268.5799 13.85513351  3927
SDA_1679                
1 65989U 25230R   25317.24621274  .00000436  00000+0  37304-3 0  9997
2 65989  81.3036  51.9497 0005101  80.2144 279.9589 13.85311122  3921
SDA_1680                
1 65990U 25230S   25317.24868624  .00000414  00000+0  35450-3 0  9997
2 65990  81.3027  51.9467 0004874  73.3130 286.8562 13.85190169  3928
SDA_1681                
1 65991U 25230T   25317.24705752  .00000480  00000+0  41197-3 0  9998
2 65991  81.3025  51.9427 0004987  77.7780 282.3935 13.85270328  3928
SDA_1682                
1 65992U 25230U   25317.25592121  .00000421  00000+0  36301-3 0  9990
2 65992  81.3053  51.9639 0003431  52.5431 307.6038 13.84834517  3922
SDA_1683                
1 65993U 25230V   25317.25427989  .00000446  00000+0  38493-3 0  9991
2 65993  81.3043  51.9587 0003779  55.0185 305.1326 13.84915528  3928
SDA_1684                
1 65994U 25230W   25317.25723010  .00000384  00000+0  33094-3 0  9999
2 65994  81.3027  51.9578 0003523  42.1356 318.0071 13.84770216  3928
